{
  "type": "FeatureCollection",
  "features": [
    {
      "type": "Feature",
      "properties": {
        "norad_id": 41384,
        "name": "IRNSS-1F",
        "group": "gnss",
        "lat": -4.565257820627116,
        "lon": 31.036782961643947,
        "alt_km": 35819.42649122825,
        "timestamp": "2025-12-06T18:50:10.410592+00:00",
        "meta_object_name": "IRNSS-1F",
        "meta_object_id": "2016-015A",
        "meta_epoch": "2025-12-06T01:57:21.943872",
        "meta_mean_motion": 1.00269013,
        "meta_eccentricity": 0.00224343,
        "meta_inclination": 4.8637,
        "meta_ra_of_asc_node": 101.4647,
        "meta_arg_of_pericenter": 179.8484,
        "meta_mean_anomaly": 215.5292,
        "meta_ephemeris_type": 0,
        "meta_classification_type": "U",
        "meta_norad_cat_id": 41384,
        "meta_element_set_no": 999,
        "meta_rev_at_epoch": 3573,
        "meta_bstar": 0,
        "meta_mean_motion_dot": 1.65e-06,
        "meta_mean_motion_ddot": 0,
        "tle_line1": "1 41384U 16015A   25340.08150398  .00000165  00000+0  00000+0 0  9991",
        "tle_line2": "2 41384   4.8637 101.4647 0022434 179.8484 215.5292  1.00269013 35735"
      },
      "geometry": {
        "type": "Point",
        "coordinates": [
          31.036782961643947,
          -4.565257820627116
        ]
      }
    },
    {
      "type": "Feature",
      "properties": {
        "norad_id": 41434,
        "name": "BEIDOU-2 IGSO-6 (C13)",
        "group": "gnss",
        "lat": 41.53102465830205,
        "lon": 70.78540345002634,
        "alt_km": 36036.59007441473,
        "timestamp": "2025-12-06T18:50:10.410611+00:00",
        "meta_object_name": "BEIDOU-2 IGSO-6 (C13)",
        "meta_object_id": "2016-021A",
        "meta_epoch": "2025-12-01T15:57:35.287200",
        "meta_mean_motion": 1.00256562,
        "meta_eccentricity": 0.00591323,
        "meta_inclination": 59.9483,
        "meta_ra_of_asc_node": 40.0119,
        "meta_arg_of_pericenter": 231.2834,
        "meta_mean_anomaly": 130.8807,
        "meta_ephemeris_type": 0,
        "meta_classification_type": "U",
        "meta_norad_cat_id": 41434,
        "meta_element_set_no": 999,
        "meta_rev_at_epoch": 3550,
        "meta_bstar": 0,
        "meta_mean_motion_dot": -1.55e-06,
        "meta_mean_motion_ddot": 0,
        "tle_line1": "1 41434U 16021A   25335.66499175 -.00000155  00000+0  00000+0 0  9991",
        "tle_line2": "2 41434  59.9483  40.0119 0059132 231.2834 130.8807  1.00256562 35501"
      },
      "geometry": {
        "type": "Point",
        "coordinates": [
          70.78540345002634,
          41.53102465830205
        ]
      }
    },
    {
      "type": "Feature",
      "properties": {
        "norad_id": 41469,
        "name": "IRNSS-1G",
        "group": "gnss",
        "lat": 2.0513425733282546,
        "lon": 127.74490229034971,
        "alt_km": 35778.2308538355,
        "timestamp": "2025-12-06T18:50:10.410632+00:00",
        "meta_object_name": "IRNSS-1G",
        "meta_object_id": "2016-027A",
        "meta_epoch": "2025-12-06T05:43:12.737568",
        "meta_mean_motion": 1.00252472,
        "meta_eccentricity": 0.00046646,
        "meta_inclination": 4.7168,
        "meta_ra_of_asc_node": 102.267,
        "meta_arg_of_pericenter": 336.9918,
        "meta_mean_anomaly": 211.2848,
        "meta_ephemeris_type": 0,
        "meta_classification_type": "U",
        "meta_norad_cat_id": 41469,
        "meta_element_set_no": 999,
        "meta_rev_at_epoch": 3524,
        "meta_bstar": 0,
        "meta_mean_motion_dot": -3.3e-06,
        "meta_mean_motion_ddot": 0,
        "tle_line1": "1 41469U 16027A   25340.23834187 -.00000330  00000+0  00000+0 0  9995",
        "tle_line2": "2 41469   4.7168 102.2670 0004664 336.9918 211.2848  1.00252472 35242"
      },
      "geometry": {
        "type": "Point",
        "coordinates": [
          127.74490229034971,
          2.0513425733282546
        ]
      }
    },
    {
      "type": "Feature",
      "properties": {
        "norad_id": 41549,
        "name": "GSAT0211 (GALILEO 14)",
        "group": "gnss",
        "lat": -44.15819569955548,
        "lon": 89.50843743756087,
        "alt_km": 23235.700469710016,
        "timestamp": "2025-12-06T18:50:10.410650+00:00",
        "meta_object_name": "GSAT0211 (GALILEO 14)",
        "meta_object_id": "2016-030A",
        "meta_epoch": "2025-12-05T19:26:55.320000",
        "meta_mean_motion": 1.70472946,
        "meta_eccentricity": 0.00039556,
        "meta_inclination": 55.1547,
        "meta_ra_of_asc_node": 227.0144,
        "meta_arg_of_pericenter": 12.8849,
        "meta_mean_anomaly": 347.2228,
        "meta_ephemeris_type": 0,
        "meta_classification_type": "U",
        "meta_norad_cat_id": 41549,
        "meta_element_set_no": 999,
        "meta_rev_at_epoch": 5937,
        "meta_bstar": 0,
        "meta_mean_motion_dot": 3.5e-07,
        "meta_mean_motion_ddot": 0,
        "tle_line1": "1 41549U 16030A   25339.81036250  .00000035  00000+0  00000+0 0  9996",
        "tle_line2": "2 41549  55.1547 227.0144 0003955  12.8849 347.2228  1.70472946 59378"
      },
      "geometry": {
        "type": "Point",
        "coordinates": [
          89.50843743756087,
          -44.15819569955548
        ]
      }
    },
    {
      "type": "Feature",
      "properties": {
        "norad_id": 41550,
        "name": "GSAT0210 (GALILEO 13)",
        "group": "gnss",
        "lat": 53.953170050059995,
        "lon": -60.025903668659936,
        "alt_km": 23220.014596152916,
        "timestamp": "2025-12-06T18:50:10.410667+00:00",
        "meta_object_name": "GSAT0210 (GALILEO 13)",
        "meta_object_id": "2016-030B",
        "meta_epoch": "2025-12-04T07:23:32.472672",
        "meta_mean_motion": 1.70473512,
        "meta_eccentricity": 0.0001419,
        "meta_inclination": 55.1546,
        "meta_ra_of_asc_node": 227.0538,
        "meta_arg_of_pericenter": 244.2228,
        "meta_mean_anomaly": 115.8568,
        "meta_ephemeris_type": 0,
        "meta_classification_type": "U",
        "meta_norad_cat_id": 41550,
        "meta_element_set_no": 999,
        "meta_rev_at_epoch": 5934,
        "meta_bstar": 0,
        "meta_mean_motion_dot": 4e-07,
        "meta_mean_motion_ddot": 0,
        "tle_line1": "1 41550U 16030B   25338.30801473  .00000040  00000+0  00000+0 0  9994",
        "tle_line2": "2 41550  55.1546 227.0538 0001419 244.2228 115.8568  1.70473512 59344"
      },
      "geometry": {
        "type": "Point",
        "coordinates": [
          -60.025903668659936,
          53.953170050059995
        ]
      }
    },
    {
      "type": "Feature",
      "properties": {
        "norad_id": 41586,
        "name": "BEIDOU-2 G7 (C03)",
        "group": "gnss",
        "lat": 1.1654498153722876,
        "lon": 108.85512380205498,
        "alt_km": 35772.068717692906,
        "timestamp": "2025-12-06T18:50:10.410685+00:00",
        "meta_object_name": "BEIDOU-2 G7 (C03)",
        "meta_object_id": "2016-037A",
        "meta_epoch": "2025-12-06T00:29:39.710400",
        "meta_mean_motion": 1.0027031,
        "meta_eccentricity": 0.00043716,
        "meta_inclination": 1.7398,
        "meta_ra_of_asc_node": 67.7245,
        "meta_arg_of_pericenter": 2.0218,
        "meta_mean_anomaly": 123.2221,
        "meta_ephemeris_type": 0,
        "meta_classification_type": "U",
        "meta_norad_cat_id": 41586,
        "meta_element_set_no": 999,
        "meta_rev_at_epoch": 495,
        "meta_bstar": 0,
        "meta_mean_motion_dot": -3.45e-06,
        "meta_mean_motion_ddot": 0,
        "tle_line1": "1 41586U 16037A   25340.02059850 -.00000345  00000+0  00000+0 0  9995",
        "tle_line2": "2 41586   1.7398  67.7245 0004371   2.0218 123.2221  1.00270310  4958"
      },
      "geometry": {
        "type": "Point",
        "coordinates": [
          108.85512380205498,
          1.1654498153722876
        ]
      }
    },
    {
      "type": "Feature",
      "properties": {
        "norad_id": 41589,
        "name": "EUTELSAT 117 WEST B (WAAS/PRN 131)",
        "group": "gnss",
        "lat": 0.01789177342002935,
        "lon": -118.6642490010389,
        "alt_km": 35787.95312168384,
        "timestamp": "2025-12-06T18:50:10.410704+00:00",
        "meta_object_name": "EUTELSAT 117 WEST B (WAAS/PRN 131)",
        "meta_object_id": "2016-038B",
        "meta_epoch": "2025-12-05T20:45:38.566944",
        "meta_mean_motion": 1.00266552,
        "meta_eccentricity": 3.952e-05,
        "meta_inclination": 0.0067,
        "meta_ra_of_asc_node": 150.7186,
        "meta_arg_of_pericenter": 345.3636,
        "meta_mean_anomaly": 133.2375,
        "meta_ephemeris_type": 0,
        "meta_classification_type": "U",
        "meta_norad_cat_id": 41589,
        "meta_element_set_no": 999,
        "meta_rev_at_epoch": 3472,
        "meta_bstar": 0,
        "meta_mean_motion_dot": -1e-08,
        "meta_mean_motion_ddot": 0,
        "tle_line1": "1 41589U 16038B   25339.86502971 -.00000001  00000+0  00000+0 0  9995",
        "tle_line2": "2 41589   0.0067 150.7186 0000395 345.3636 133.2375  1.00266552 34724"
      },
      "geometry": {
        "type": "Point",
        "coordinates": [
          -118.6642490010389,
          0.01789177342002935
        ]
      }
    }
  ]
}